[{"OBJECT_NAME":"SHIJIAN-6 02B (SJ-6 02B)","OBJECT_ID":"2006-046B","EPOCH":"2026-03-09T23:09:06.940224","MEAN_MOTION":15.01001333,"ECCENTRICITY":0.00140021,"INCLINATION":97.7065,"RA_OF_ASC_NODE":98.697,"ARG_OF_PERICENTER":42.7506,"MEAN_ANOMALY":317.4805,"EPHEMERIS_TYPE":0,"CLASSIFICATION_TYPE":"U","NORAD_CAT_ID":29506,"ELEMENT_SET_NO":999,"REV_AT_EPOCH":5585,"BSTAR":0.00024683398,"MEAN_MOTION_DOT":3.096e-5,"MEAN_MOTION_DDOT":0},{"OBJECT_NAME":"STARLINK-36073","OBJECT_ID":"2025-280Z","EPOCH":"2026-03-09T22:45:29.195712","MEAN_MOTION":14.98332199,"ECCENTRICITY":0.00021093,"INCLINATION":70.0025,"RA_OF_ASC_NODE":333.8389,"ARG_OF_PERICENTER":275.8635,"MEAN_ANOMALY":84.2284,"EPHEMERIS_TYPE":0,"CLASSIFICATION_TYPE":"U","NORAD_CAT_ID":66844,"ELEMENT_SET_NO":999,"REV_AT_EPOCH":1608,"BSTAR":0.00024127367,"MEAN_MOTION_DOT":2.787e-5,"MEAN_MOTION_DDOT":0}]
